[{"OBJECT_NAME":"O3B FM20","OBJECT_ID":"2019-020A","EPOCH":"2026-04-25T20:10:33.494880","MEAN_MOTION":5.00115504,"ECCENTRICITY":0.00025897,"INCLINATION":0.0532,"RA_OF_ASC_NODE":1.295,"ARG_OF_PERICENTER":23.226,"MEAN_ANOMALY":335.4896,"EPHEMERIS_TYPE":0,"CLASSIFICATION_TYPE":"U","NORAD_CAT_ID":44112,"ELEMENT_SET_NO":999,"REV_AT_EPOCH":12895,"BSTAR":0,"MEAN_MOTION_DOT":-2.7e-7,"MEAN_MOTION_DDOT":0},{"OBJECT_NAME":"O3B FM19","OBJECT_ID":"2019-020B","EPOCH":"2026-04-21T16:04:51.104352","MEAN_MOTION":5.00115966,"ECCENTRICITY":0.0003491,"INCLINATION":0.0716,"RA_OF_ASC_NODE":348.2754,"ARG_OF_PERICENTER":26.5306,"MEAN_ANOMALY":345.2041,"EPHEMERIS_TYPE":0,"CLASSIFICATION_TYPE":"U","NORAD_CAT_ID":44113,"ELEMENT_SET_NO":999,"REV_AT_EPOCH":12861,"BSTAR":0,"MEAN_MOTION_DOT":-2.2e-7,"MEAN_MOTION_DDOT":0},{"OBJECT_NAME":"O3B FM17","OBJECT_ID":"2019-020C","EPOCH":"2026-04-25T08:21:22.281984","MEAN_MOTION":5.00115482,"ECCENTRICITY":0.00026093,"INCLINATION":0.0342,"RA_OF_ASC_NODE":354.8678,"ARG_OF_PERICENTER":36.6567,"MEAN_ANOMALY":328.4893,"EPHEMERIS_TYPE":0,"CLASSIFICATION_TYPE":"U","NORAD_CAT_ID":44114,"ELEMENT_SET_NO":999,"REV_AT_EPOCH":12888,"BSTAR":0,"MEAN_MOTION_DOT":-2.7e-7,"MEAN_MOTION_DDOT":0},{"OBJECT_NAME":"O3B FM18","OBJECT_ID":"2019-020D","EPOCH":"2026-04-25T16:39:44.732736","MEAN_MOTION":5.00115236,"ECCENTRICITY":0.00027337,"INCLINATION":0.0537,"RA_OF_ASC_NODE":1.515,"ARG_OF_PERICENTER":34.2778,"MEAN_ANOMALY":324.2238,"EPHEMERIS_TYPE":0,"CLASSIFICATION_TYPE":"U","NORAD_CAT_ID":44115,"ELEMENT_SET_NO":999,"REV_AT_EPOCH":12902,"BSTAR":0,"MEAN_MOTION_DOT":-2.7e-7,"MEAN_MOTION_DDOT":0},{"OBJECT_NAME":"SALSAT","OBJECT_ID":"2020-068K","EPOCH":"2026-04-25T22:26:17.896704","MEAN_MOTION":15.29005761,"ECCENTRICITY":0.00115234,"INCLINATION":97.8865,"RA_OF_ASC_NODE":115.8517,"ARG_OF_PERICENTER":121.2153,"MEAN_ANOMALY":239.0216,"EPHEMERIS_TYPE":0,"CLASSIFICATION_TYPE":"U","NORAD_CAT_ID":46495,"ELEMENT_SET_NO":999,"REV_AT_EPOCH":30737,"BSTAR":0.00034294036,"MEAN_MOTION_DOT":9.598e-5,"MEAN_MOTION_DDOT":0},{"OBJECT_NAME":"O3B MPOWER F1","OBJECT_ID":"2022-174A","EPOCH":"2026-04-25T15:40:17.185152","MEAN_MOTION":5.00114823,"ECCENTRICITY":0.00059686,"INCLINATION":0.0598,"RA_OF_ASC_NODE":347.399,"ARG_OF_PERICENTER":66.0147,"MEAN_ANOMALY":92.0009,"EPHEMERIS_TYPE":0,"CLASSIFICATION_TYPE":"U","NORAD_CAT_ID":54755,"ELEMENT_SET_NO":999,"REV_AT_EPOCH":6273,"BSTAR":0,"MEAN_MOTION_DOT":-2.7e-7,"MEAN_MOTION_DDOT":0},{"OBJECT_NAME":"O3B MPOWER F2","OBJECT_ID":"2022-174B","EPOCH":"2026-04-25T12:55:59.041056","MEAN_MOTION":5.00115368,"ECCENTRICITY":0.00059376,"INCLINATION":0.0564,"RA_OF_ASC_NODE":345.0501,"ARG_OF_PERICENTER":47.5246,"MEAN_ANOMALY":327.4601,"EPHEMERIS_TYPE":0,"CLASSIFICATION_TYPE":"U","NORAD_CAT_ID":54756,"ELEMENT_SET_NO":999,"REV_AT_EPOCH":6280,"BSTAR":0,"MEAN_MOTION_DOT":-2.7e-7,"MEAN_MOTION_DDOT":0},{"OBJECT_NAME":"O3B MPOWER F4","OBJECT_ID":"2023-059A","EPOCH":"2026-04-25T19:16:26.507712","MEAN_MOTION":5.00115881,"ECCENTRICITY":0.00072509,"INCLINATION":0.0649,"RA_OF_ASC_NODE":2.6449,"ARG_OF_PERICENTER":44.1224,"MEAN_ANOMALY":313.2915,"EPHEMERIS_TYPE":0,"CLASSIFICATION_TYPE":"U","NORAD_CAT_ID":56367,"ELEMENT_SET_NO":999,"REV_AT_EPOCH":5597,"BSTAR":0,"MEAN_MOTION_DOT":-2.7e-7,"MEAN_MOTION_DDOT":0},{"OBJECT_NAME":"O3B MPOWER F3","OBJECT_ID":"2023-059B","EPOCH":"2026-04-25T20:04:21.119520","MEAN_MOTION":5.00116608,"ECCENTRICITY":0.00066487,"INCLINATION":0.066,"RA_OF_ASC_NODE":2.388,"ARG_OF_PERICENTER":34.6963,"MEAN_ANOMALY":322.9599,"EPHEMERIS_TYPE":0,"CLASSIFICATION_TYPE":"U","NORAD_CAT_ID":56368,"ELEMENT_SET_NO":999,"REV_AT_EPOCH":5211,"BSTAR":0,"MEAN_MOTION_DOT":-2.7e-7,"MEAN_MOTION_DDOT":0},{"OBJECT_NAME":"O3B MPOWER F9","OBJECT_ID":"2025-153A","EPOCH":"2026-04-25T19:18:35.380224","MEAN_MOTION":5.00116064,"ECCENTRICITY":0.0005552,"INCLINATION":0.0539,"RA_OF_ASC_NODE":15.2785,"ARG_OF_PERICENTER":44.5914,"MEAN_ANOMALY":300.1834,"EPHEMERIS_TYPE":0,"CLASSIFICATION_TYPE":"U","NORAD_CAT_ID":64866,"ELEMENT_SET_NO":999,"REV_AT_EPOCH":1694,"BSTAR":0,"MEAN_MOTION_DOT":-2.7e-7,"MEAN_MOTION_DDOT":0},{"OBJECT_NAME":"O3B MPOWER F10","OBJECT_ID":"2025-153B","EPOCH":"2026-04-25T08:53:47.836320","MEAN_MOTION":5.00114865,"ECCENTRICITY":0.0002819,"INCLINATION":0.0538,"RA_OF_ASC_NODE":10.3189,"ARG_OF_PERICENTER":261.8403,"MEAN_ANOMALY":87.8067,"EPHEMERIS_TYPE":0,"CLASSIFICATION_TYPE":"U","NORAD_CAT_ID":64867,"ELEMENT_SET_NO":999,"REV_AT_EPOCH":1939,"BSTAR":0,"MEAN_MOTION_DOT":-2.7e-7,"MEAN_MOTION_DDOT":0}]
