O3B FM20                
1 44112U 19020A   26115.84066545 -.00000027  00000+0  00000+0 0  9995
2 44112   0.0532   1.2950 0002589  23.2260 335.4896  5.00115504128954
O3B FM19                
1 44113U 19020B   26111.67003593 -.00000022  00000+0  00000+0 0  9992
2 44113   0.0716 348.2754 0003491  26.5306 345.2041  5.00115966128611
O3B FM17                
1 44114U 19020C   26115.34817456 -.00000027  00000+0  00000+0 0  9997
2 44114   0.0342 354.8678 0002609  36.6567 328.4893  5.00115482128886
O3B FM18                
1 44115U 19020D   26115.69426774 -.00000027  00000+0  00000+0 0  9995
2 44115   0.0537   1.5150 0002733  34.2778 324.2238  5.00115236129021
SALSAT                  
1 46495U 20068K   26115.93492936  .00009598  00000+0  34294-3 0  9999
2 46495  97.8865 115.8517 0011523 121.2153 239.0216 15.29005761307377
O3B MPOWER F1           
1 54755U 22174A   26115.65297668 -.00000027  00000+0  00000+0 0  9994
2 54755   0.0598 347.3990 0005968  66.0147  92.0009  5.00114823 62739
O3B MPOWER F2           
1 54756U 22174B   26115.53887779 -.00000027  00000+0  00000+0 0  9990
2 54756   0.0564 345.0501 0005937  47.5246 327.4601  5.00115368 62802
O3B MPOWER F4           
1 56367U 23059A   26115.80308458 -.00000027  00000+0  00000+0 0  9995
2 56367   0.0649   2.6449 0007250  44.1224 313.2915  5.00115881 55973
O3B MPOWER F3           
1 56368U 23059B   26115.83635555 -.00000027  00000+0  00000+0 0  9990
2 56368   0.0660   2.3880 0006648  34.6963 322.9599  5.00116608 52113
O3B MPOWER F9           
1 64866U 25153A   26115.80457616 -.00000027  00000+0  00000+0 0  9996
2 64866   0.0539  15.2785 0005552  44.5914 300.1834  5.00116064 16943
O3B MPOWER F10          
1 64867U 25153B   26115.37069255 -.00000027  00000+0  00000+0 0  9997
2 64867   0.0538  10.3189 0002819 261.8403  87.8067  5.00114865 19393
